{
  "norad_id": 68861,
  "name": "STARLINK-37479",
  "history": [
    {
      "epoch": "2026-05-02T10:00:03.000096Z",
      "apogee_km": 269.7741722819792,
      "perigee_km": 268.22406013967975,
      "latitude_deg": -69.5029861463463,
      "longitude_deg": -74.13159983185749,
      "height_km": 295.7851953981891,
      "semi_major_axis_km": 6647.13611621083,
      "eccentricity": 0.0001166,
      "inclination_deg": 97.281,
      "raan_deg": 136.0835,
      "arg_perigee_deg": 90.4294,
      "mean_anomaly_deg": 160.1791,
      "mean_motion_rev_day": 16.01957182
    }
  ]
}