{"fetched_at":"2026-05-03T09:24:26Z","count":17359,"tles":[{"name":"STARLINK-37479","line1":"1 68861U 26094Y   26122.41670139 -.01721271  91797-3 -30641-2 0  9999","line2":"2 68861  97.2810 136.0835 0001166  90.4294 160.1791 16.01957182  2003","category":"Starlink"}]}